NORAD_CAT_ID,OBJECT_NAME,OBJECT_TYPE,EPOCH,MEAN_MOTION,ECCENTRICITY,INCLINATION,RA_OF_ASC_NODE,ARG_OF_PERICENTER,MEAN_ANOMALY,BSTAR,MEAN_MOTION_DOT,MEAN_MOTION_DDOT,TLE_LINE0,TLE_LINE1,TLE_LINE2,SEMIMAJOR_AXIS,PERIOD,APOGEE,PERIGEE,DECAYED
51897.0,STARLINK-3598,PAYLOAD,2022-05-19 22:00:00,15.49887142,0.0001426999999999,53.2173,122.9257,51.1892,74.2352,-4.5374e-05,-3.026e-05,0.0,0 STARLINK-3598,1 51897U 22022AX  22139.91667824 -.00003026  00000-0 -45374-4 0  9998,2 51897  53.2173 122.9257 0001427  51.1892  74.2352 15.49887142 13377,6795.193,92.91,418.028,416.088,0.0
51897.0,STARLINK-3598,PAYLOAD,2022-05-20 06:00:00,15.49879899,0.0001375,53.216,121.3278,45.6684,140.6206,0.00055384,0.00031101,0.0,0 STARLINK-3598,1 51897U 22022AX  22140.25001157  .00031101  00000-0  55384-3 0  9992,2 51897  53.2160 121.3278 0001375  45.6684 140.6206 15.49879899 13420,6795.214,92.91,418.013,416.145,0.0
51897.0,STARLINK-3598,PAYLOAD,2022-05-20 14:00:01,15.49932693,0.0001336,53.2158,119.73,49.3405,197.8737,-0.00019296,-0.00011406,0.0,0 STARLINK-3598,1 51897U 22022AX  22140.58334491 -.00011406  00000-0 -19296-3 0  9998,2 51897  53.2158 119.7300 0001336  49.3405 197.8737 15.49932693  1302,6795.06,92.907,417.833,416.017,0.0
51897.0,STARLINK-3598,PAYLOAD,2022-05-20 22:00:00,15.49919425,0.0001304,53.2161,118.1356,58.4996,249.6689,0.00090329,0.00051214,0.0,0 STARLINK-3598,1 51897U 22022AX  22140.91667824  .00051214  00000-0  90329-3 0  9999,2 51897  53.2161 118.1356 0001304  58.4996 249.6689 15.49919425  1301,6795.099,92.908,417.85,416.077,0.0
51897.0,STARLINK-3598,PAYLOAD,2022-05-21 06:00:00,15.49966004,0.0001561999999999,53.2159,116.5445,53.1568,315.9846,-0.0011292,-0.00064201,0.0,0 STARLINK-3598,1 51897U 22022AX  22141.25001157 -.00064201  00000-0 -11292-2 0  9991,2 51897  53.2159 116.5445 0001562  53.1568 315.9846 15.49966004  1309,6794.962,92.905,417.889,415.766,0.0
51897.0,STARLINK-3598,PAYLOAD,2022-05-21 14:00:01,15.49921171,0.0001547,53.2154,114.9504,57.285,12.915,-0.0002774,-0.00016183,0.0,0 STARLINK-3598,1 51897U 22022AX  22141.58335648 -.00016183  00000-0 -27740-3 0  9994,2 51897  53.2154 114.9504 0001547  57.2850  12.9150 15.49921171 13620,6795.093000000003,92.908,418.01,415.907,0.0
51897.0,STARLINK-3598,PAYLOAD,2022-05-21 22:00:00,15.49911039,0.0001389,53.2157,113.3564,65.1366,65.9517,-0.00054937,-0.00031535,0.0,0 STARLINK-3598,1 51897U 22022AX  22141.91667824 -.00031535  00000-0 -54937-3 0  9991,2 51897  53.2157 113.3564 0001389  65.1366  65.9517 15.49911039  1305,6795.123000000001,92.909,417.932,416.044,0.0
51897.0,STARLINK-3598,PAYLOAD,2022-05-22 14:00:01,15.5001063,0.0001148,53.2158,110.1751,59.5379,193.411,-0.0047543,-0.00262599,0.0,0 STARLINK-3598,1 51897U 22022AX  22142.58334491 -.00262599  00000-0 -47543-2 0  9996,2 51897  53.2158 110.1751 0001148  59.5379 193.4110 15.50010630 13783,6794.831999999999,92.903,417.477,415.917,0.0
51897.0,STARLINK-3598,PAYLOAD,2022-05-22 22:00:01,15.49905462,0.0001443,53.2154,108.577,68.7397,245.2397,-0.00057915,-0.00033206,0.0,0 STARLINK-3598,1 51897U 22022AX  22142.91668981 -.00033206  00000-0 -57915-3 0  9993,2 51897  53.2154 108.5770 0001443  68.7397 245.2397 15.49905462 13834,6795.139,92.909,417.985,416.024,0.0
51897.0,STARLINK-3598,PAYLOAD,2022-05-23 14:00:01,15.50105878,0.0001472,53.2162,105.3972,58.5497,17.1415,-0.011296,-0.00599444,0.0,0 STARLINK-3598,1 51897U 22022AX  22143.58334491 -.00599444  00000-0 -11296-1 0  9994,2 51897  53.2162 105.3972 0001472  58.5497  17.1415 15.50105878  1303,6794.554,92.897,417.419,415.418,0.0
51897.0,STARLINK-3598,PAYLOAD,2022-05-23 22:00:01,15.49583527,0.0001401,53.217,103.8077,69.2256,67.4637,-0.001231,-0.0006897,0.0,0 STARLINK-3598,1 51897U 22022AX  22143.91668981 -.00068970  00000-0 -12310-2 0  9999,2 51897  53.2170 103.8077 0001401  69.2256  67.4637 15.49583527 13996,6796.08,92.928,418.898,416.99300000000005,0.0
51897.0,STARLINK-3598,PAYLOAD,2022-05-24 06:00:02,15.49545116,0.0001539,53.2176,102.2221,53.2411,143.9915,-0.013856,-0.00719658,0.0,0 STARLINK-3598,1 51897U 22022AX  22144.25002315 -.00719658  00000-0 -13856-1 0  9991,2 51897  53.2176 102.2221 0001539  53.2411 143.9915 15.49545116 14042,6796.193,92.93,419.104,417.012,0.0
51897.0,STARLINK-3598,PAYLOAD,2022-05-24 14:00:01,15.4903819,0.0001311,53.2175,100.6312,68.1064,189.2549,-0.014226,-0.00725246,0.0,0 STARLINK-3598,1 51897U 22022AX  22144.58334491 -.00725246  00000-0 -14226-1 0  9992,2 51897  53.2175 100.6312 0001311  68.1064 189.2549 15.49038190  1301,6797.675,92.961,420.432,418.649,0.0
51897.0,STARLINK-3598,PAYLOAD,2022-05-24 22:00:00,15.48526498,0.0001315,53.2178,99.0427,56.5651,260.3772,-0.0143949999999999,-0.0072106,0.0,0 STARLINK-3598,1 51897U 22022AX  22144.91667824 -.00721060  00000-0 -14395-1 0  9995,2 51897  53.2178  99.0427 0001315  56.5651 260.3772 15.48526498  1300,6799.1730000000025,92.992,421.932,420.144,0.0
51897.0,STARLINK-3598,PAYLOAD,2022-05-25 06:00:00,15.48016682,0.0001355,53.2177,97.4577,49.5202,326.389,-0.014688,-0.00722555,0.0,0 STARLINK-3598,1 51897U 22022AX  22145.25001157 -.00722555  00000-0 -14688-1 0  9999,2 51897  53.2177  97.4577 0001355  49.5202 326.3890 15.48016682 14199,6800.666,93.022,423.452,421.609,0.0
51897.0,STARLINK-3598,PAYLOAD,2022-05-25 14:00:01,15.47505744,0.0001258,53.2175,95.8704,54.8806,19.3848,-0.014909,-0.00720559,0.0,0 STARLINK-3598,1 51897U 22022AX  22145.58334491 -.00720559  00000-0 -14909-1 0  9993,2 51897  53.2175  95.8704 0001258  54.8806  19.3848 15.47505744  1304,6802.1619999999975,93.053,424.883,423.172,0.0
51897.0,STARLINK-3598,PAYLOAD,2022-05-25 22:00:00,15.46893091,0.0001437,53.2172,94.2832,67.6217,64.444,-0.012192,-0.00579286,0.0,0 STARLINK-3598,1 51897U 22022AX  22145.91667824 -.00579286  00000-0 -12192-1 0  9990,2 51897  53.2172  94.2832 0001437  67.6217  64.4440 15.46893091  1306,6803.958000000001,93.09,426.801,424.846,0.0
51897.0,STARLINK-3598,PAYLOAD,2022-05-26 06:00:00,15.46483664,0.0001460999999999,53.2175,92.704,59.6958,129.441,-0.01536,-0.00716724,0.0,0 STARLINK-3598,1 51897U 22022AX  22146.25001157 -.00716724  00000-0 -15360-1 0  9999,2 51897  53.2175  92.7040 0001461  59.6958 129.4410 15.46483664 14352,6805.159000000002,93.114,428.018,426.03,0.0
51897.0,STARLINK-3598,PAYLOAD,2022-05-26 14:00:01,15.45977601,0.0001323,53.2175,91.1203,67.8122,177.8407,-0.015784,-0.00723172,0.0,0 STARLINK-3598,1 51897U 22022AX  22146.58334491 -.00723172  00000-0 -15784-1 0  9990,2 51897  53.2175  91.1203 0001323  67.8122 177.8407 15.45977601  1309,6806.644,93.145,429.41,427.609,0.0
51897.0,STARLINK-3598,PAYLOAD,2022-05-26 22:00:00,15.45466585,0.0001283,53.2176,89.5393,65.7176,235.8394,-0.016009,-0.00720834,0.0,0 STARLINK-3598,1 51897U 22022AX  22146.91667824 -.00720834  00000-0 -16009-1 0  9999,2 51897  53.2176  89.5393 0001283  65.7176 235.8394 15.45466585  1306,6808.144,93.176,430.883,429.136,0.0
51897.0,STARLINK-3598,PAYLOAD,2022-05-27 02:54:31,15.45891505,0.0001796,53.2148,88.5503,65.5438,294.5757,-0.0075896,-0.00358437,0.0,0 STARLINK-3598,1 51897U 22022AX  22147.12119319 -.00358437  00000-0 -75896-2 0  9990,2 51897  53.2148  88.5503 0001796  65.5438 294.5757 15.45891505 14487,6806.897,93.15,429.984,427.539,0.0
51897.0,STARLINK-3598,PAYLOAD,2022-05-27 14:00:01,15.44445664,0.0001200999999999,53.2175,86.3814,59.0763,352.4505,-0.016557,-0.00719891,0.0,0 STARLINK-3598,1 51897U 22022AX  22147.58334491 -.00719891  00000-0 -16557-1 0  9993,2 51897  53.2175  86.3814 0001201  59.0763 352.4505 15.44445664  1300,6811.144,93.237,433.827,432.191,0.0
51897.0,STARLINK-3598,PAYLOAD,2022-05-27 16:00:00,15.44318448,0.0001363,53.2173,85.986,56.7059,98.3946,-0.016611,-0.00719185,0.0,0 STARLINK-3598,1 51897U 22022AX  22147.66667824 -.00719185  00000-0 -16611-1 0  9998,2 51897  53.2173  85.9860 0001363  56.7059  98.3946 15.44318448 14561,6811.518,93.245,434.312,432.455,0.0
51897.0,STARLINK-3598,PAYLOAD,2022-05-27 22:00:01,15.4393624,0.0001371,53.2175,84.8041,54.3003,51.3561,-0.016865,-0.00720605,0.0,0 STARLINK-3598,1 51897U 22022AX  22147.91668981 -.00720605  00000-0 -16865-1 0  9991,2 51897  53.2175  84.8041 0001371  54.3003  51.3561 15.43936240  1309,6812.643,93.268,435.442,433.574,0.0
51897.0,STARLINK-3598,PAYLOAD,2022-05-28 13:05:08,15.43773482,0.0002276,53.2175,81.8132,104.9757,255.1502,-0.0082584,-0.00362582,0.0,0 STARLINK-3598,1 51897U 22022AX  22148.54524057 -.00362582  00000-0 -82584-2 0  9994,2 51897  53.2175  81.8132 0002276 104.9757 255.1502 15.43773482 14704,6813.121,93.278,436.537,433.436,0.0
51897.0,STARLINK-3598,PAYLOAD,2022-05-28 22:00:00,15.42405593,0.0001398,53.2176,80.0799,63.6302,200.4815,-0.017717,-0.00718862,0.0,0 STARLINK-3598,1 51897U 22022AX  22148.91667824 -.00718862  00000-0 -17717-1 0  9996,2 51897  53.2176  80.0799 0001398  63.6302 200.4815 15.42405593 14755,6817.149,93.361,439.967,438.061,0.0
51897.0,STARLINK-3598,PAYLOAD,2022-05-29 14:00:01,15.41385395,0.0001200999999999,53.2176,76.936,59.5347,307.1932,-0.018334,-0.00718794,0.0,0 STARLINK-3598,1 51897U 22022AX  22149.58334491 -.00718794  00000-0 -18334-1 0  9991,2 51897  53.2176  76.9360 0001201  59.5347 307.1932 15.41385395  1307,6820.156999999997,93.422,442.841,441.203,0.0
51897.0,STARLINK-3598,PAYLOAD,2022-05-29 20:11:47,15.41834015,0.0001308,53.2166,75.7037,44.0647,316.0464,-0.0086918,-0.0035761,0.0,0 STARLINK-3598,1 51897U 22022AX  22149.84152627 -.00357610  00000-0 -86918-2 0  9999,2 51897  53.2166  75.7037 0001308  44.0647 316.0464 15.41834015 14901,6818.834,93.395,441.591,439.807,0.0
51897.0,STARLINK-3598,PAYLOAD,2022-05-29 22:00:00,15.40877378,0.0001268,53.2177,75.3668,58.1299,358.9855,-0.018735,-0.00721902,0.0,0 STARLINK-3598,1 51897U 22022AX  22149.91667824 -.00721902  00000-0 -18735-1 0  9997,2 51897  53.2177  75.3668 0001268  58.1299 358.9855 15.40877378 14911,6821.656,93.453,444.386,442.656,0.0
